OSM-1 CICERO            
1 46294U 20061Y   24020.12209111  .00018443  00000+0  74319-3 0  9995
2 46294  97.3738  87.9066 0003020  25.8746 334.2642 15.24888373186690
TYVAK-0171              
1 46295U 20061Z   24020.19020449  .00501550  00000+0  27265-2 0  9991
2 46295  97.3708 100.5079 0006343 298.8435  61.2195 15.78622528187421
FLOCK 4V-10             
1 46296U 20061AA  24020.47400515  .00024991  00000+0  74900-3 0  9997
2 46296  97.3775  93.6547 0001830  46.3594 313.7800 15.34483270187065
FLOCK 4V-13             
1 46297U 20061AB  24020.15185725  .00023689  00000+0  72212-3 0  9993
2 46297  97.3769  93.3068 0000820  49.5566 310.5748 15.33957555186994
TTU100                  
1 46312U 20061AS  24020.70501186  .00046537  00000+0  12110-2 0  9992
2 46312  97.3783  94.2994 0001683 319.9685  40.1436 15.38758192187127
KEPLER-2 (TARS)         
1 46319U 20061AZ  24020.74989878  .00027200  00000+0  93086-3 0  9999
2 46319  97.3752  91.3525 0000751 319.3283  40.7902 15.30210554186996
NAPA-1                  
1 46320U 20061BA  24020.81548140  .00012972  00000+0  60317-3 0  9993
2 46320  97.3769  87.3606 0001491 323.2813  36.8320 15.20093972186730
FLOCK 4V-2              
1 46321U 20061BB  24020.22635619  .00398322  00000+0  21149-2 0  9992
2 46321  97.3415 100.9777 0003167 286.8533  73.2387 15.79431663187450
JILIN-1 GAOFEN 3B       
1 46454U 20065A   24020.77961273  .00013363  00000+0  59630-3 0  9997
2 46454  97.3666  68.6317 0012456  26.8656 333.3223 15.21432881184832
JILIN-1 GAOFEN 3E       
1 46457U 20065D   24020.78568679  .00013389  00000+0  59978-3 0  9997
2 46457  97.3675  68.7432 0011558  45.6684 314.5497 15.21311428184833
JILIN-1 GAOFEN 3F       
1 46458U 20065E   24020.82708529  .00012984  00000+0  58142-3 0  9995
2 46458  97.3606  67.7321 0011702  35.1353 325.0652 15.21329991184847
JILIN-1 GAOFEN 3G       
1 46459U 20065F   24020.81306827  .00013811  00000+0  61676-3 0  9996
2 46459  97.3725  69.7427 0012591  39.6399 320.5755 15.21398004184840
JILIN-1 GAOFEN 3H       
1 46460U 20065G   24020.76979921  .00012544  00000+0  56397-3 0  9999
2 46460  97.3618  67.8679 0011879  37.6033 322.6031 15.21197486184832
JILIN-1 GAOFEN 3J       
1 46462U 20065J   24020.79121983  .00013494  00000+0  60255-3 0  9994
2 46462  97.3665  68.7253 0011617  35.6424 324.5586 15.21416771184844
HAIYANG-2C              
1 46469U 20066A   24020.78434015 -.00000008  00000+0  66374-4 0  9991
2 46469  65.9944 242.3126 0014169 266.7055  93.2392 13.83373795168271
HJ-2A                   
1 46478U 20067A   24020.82888214  .00001695  00000+0  25056-3 0  9994
2 46478  97.9525 105.2184 0000760 114.5010 245.6279 14.76513068178646
HJ-2B                   
1 46479U 20067B   24020.79626683  .00001676  00000+0  24795-3 0  9999
2 46479  97.9562 105.6780 0000674  99.1771 260.9515 14.76494269178644
GONETS-M 17             
1 46486U 20068A   24020.81948448  .00000048  00000+0  27076-3 0  9994
2 46486  82.4985 173.9088 0023800 150.3131 209.9305 12.42902766150237
GONETS-M 18             
1 46487U 20068B   24020.78563550  .00000054  00000+0  31642-3 0  9999
2 46487  82.4940 173.3835 0020961 146.8616 213.3782 12.42882940150224
GONETS-M 19             
1 46488U 20068C   24020.59933775  .00000058  00000+0  34578-3 0  9994
2 46488  82.4964 173.7677 0014501 161.6017 198.5590 12.42877045150100
MEZNSAT                 
1 46489U 20068D   24020.81784258  .00020891  00000+0  98794-3 0  9997
2 46489  97.7931 341.0150 0016066  87.4153 272.8919 15.19297178182199
YARILO 1                
1 46490U 20068E   24020.81098920  .00026070  00000+0  11804-2 0  9994
2 46490  97.7947 341.6867 0015574  87.7570 272.5448 15.20756844182239
YARILO 2                
1 46491U 20068F   24020.41085340  .00021149  00000+0  96751-3 0  9990
2 46491  97.7945 341.0399 0016049  89.9055 270.4018 15.20439976182157
LACUNASAT-3             
1 46492U 20068G   24020.40915109  .00023756  00000+0  10418-2 0  9996
2 46492  97.7921 341.5505 0015289  87.6769 272.6216 15.21874129182178
DEKART                  
1 46493U 20068H   24020.81985366  .00010222  00000+0  59835-3 0  9995
2 46493  97.7977 337.8077 0017528 100.9931 259.3272 15.11904921181952
NORBI                   
1 46494U 20068J   24020.79827664  .00009950  00000+0  56103-3 0  9990
2 46494  97.7978 338.2893 0016985 100.1473 260.1675 15.13268245181988
SALSAT                  
1 46495U 20068K   24020.41807701  .00008278  00000+0  50442-3 0  9992
2 46495  97.7975 336.4648 0016354  99.4324 260.8754 15.10533015181835
ICEYE-X6                
1 46497U 20068M   24020.80922677  .00006900  00000+0  54810-3 0  9990
2 46497  97.8988 334.0396 0005364 134.8845 225.2814 15.00784759181415
LEMUR-2-SLICERS         
1 46500U 20068Q   24020.43616945  .00043452  00000+0  15228-2 0  9994
2 46500  97.7767 341.6763 0010348  96.9205 263.3212 15.29284855182196
LEMUR-2-SUSURRUS        
1 46502U 20068S   24020.82951768  .00036590  00000+0  12841-2 0  9997
2 46502  97.7790 342.1293 0010117  95.0104 265.2290 15.29283153182254
