OBJECT_NAME,OBJECT_ID,EPOCH,MEAN_MOTION,ECCENTRICITY,INCLINATION,RA_OF_ASC_NODE,ARG_OF_PERICENTER,MEAN_ANOMALY,EPHEMERIS_TYPE,CLASSIFICATION_TYPE,NORAD_CAT_ID,ELEMENT_SET_NO,REV_AT_EPOCH,BSTAR,MEAN_MOTION_DOT,MEAN_MOTION_DDOT
OSM-1 CICERO,2020-061Y,2024-01-20T02:55:48.671904,15.24888373,.000302,97.3738,87.9066,25.8746,334.2642,0,U,46294,999,18669,.74319E-3,.18443E-3,0
TYVAK-0171,2020-061Z,2024-01-20T04:33:53.667936,15.78622528,.0006343,97.3708,100.5079,298.8435,61.2195,0,U,46295,999,18742,.27265E-2,.50155E-2,0
FLOCK 4V-10,2020-061AA,2024-01-20T11:22:34.044960,15.34483270,.000183,97.3775,93.6547,46.3594,313.7800,0,U,46296,999,18706,.749E-3,.24991E-3,0
FLOCK 4V-13,2020-061AB,2024-01-20T03:38:40.466400,15.33957555,.000082,97.3769,93.3068,49.5566,310.5748,0,U,46297,999,18699,.72212E-3,.23689E-3,0
TTU100,2020-061AS,2024-01-20T16:55:13.024704,15.38758192,.0001683,97.3783,94.2994,319.9685,40.1436,0,U,46312,999,18712,.1211E-2,.46537E-3,0
KEPLER-2 (TARS),2020-061AZ,2024-01-20T17:59:51.254592,15.30210554,.0000751,97.3752,91.3525,319.3283,40.7902,0,U,46319,999,18699,.93086E-3,.272E-3,0
NAPA-1,2020-061BA,2024-01-20T19:34:17.592960,15.20093972,.0001491,97.3769,87.3606,323.2813,36.8320,0,U,46320,999,18673,.60317E-3,.12972E-3,0
FLOCK 4V-2,2020-061BB,2024-01-20T05:25:57.174816,15.79431663,.0003167,97.3415,100.9777,286.8533,73.2387,0,U,46321,999,18745,.21149E-2,.398322E-2,0
JILIN-1 GAOFEN 3B,2020-065A,2024-01-20T18:42:38.539872,15.21432881,.0012456,97.3666,68.6317,26.8656,333.3223,0,U,46454,999,18483,.5963E-3,.13363E-3,0
JILIN-1 GAOFEN 3E,2020-065D,2024-01-20T18:51:23.338656,15.21311428,.0011558,97.3675,68.7432,45.6684,314.5497,0,U,46457,999,18483,.59978E-3,.13389E-3,0
JILIN-1 GAOFEN 3F,2020-065E,2024-01-20T19:51:00.169056,15.21329991,.0011702,97.3606,67.7321,35.1353,325.0652,0,U,46458,999,18484,.58142E-3,.12984E-3,0
JILIN-1 GAOFEN 3G,2020-065F,2024-01-20T19:30:49.098528,15.21398004,.0012591,97.3725,69.7427,39.6399,320.5755,0,U,46459,999,18484,.61676E-3,.13811E-3,0
JILIN-1 GAOFEN 3H,2020-065G,2024-01-20T18:28:30.651744,15.21197486,.0011879,97.3618,67.8679,37.6033,322.6031,0,U,46460,999,18483,.56397E-3,.12544E-3,0
JILIN-1 GAOFEN 3J,2020-065J,2024-01-20T18:59:21.393312,15.21416771,.0011617,97.3665,68.7253,35.6424,324.5586,0,U,46462,999,18484,.60255E-3,.13494E-3,0
HAIYANG-2C,2020-066A,2024-01-20T18:49:26.988960,13.83373795,.0014169,65.9944,242.3126,266.7055,93.2392,0,U,46469,999,16827,.66374E-4,-.8E-7,0
HJ-2A,2020-067A,2024-01-20T19:53:35.416896,14.76513068,.000076,97.9525,105.2184,114.5010,245.6279,0,U,46478,999,17864,.25056E-3,.1695E-4,0
HJ-2B,2020-067B,2024-01-20T19:06:37.454112,14.76494269,.0000674,97.9562,105.6780,99.1771,260.9515,0,U,46479,999,17864,.24795E-3,.1676E-4,0
GONETS-M 17,2020-068A,2024-01-20T19:40:03.459072,12.42902766,.00238,82.4985,173.9088,150.3131,209.9305,0,U,46486,999,15023,.27076E-3,.48E-6,0
GONETS-M 18,2020-068B,2024-01-20T18:51:18.907200,12.42882940,.0020961,82.4940,173.3835,146.8616,213.3782,0,U,46487,999,15022,.31642E-3,.54E-6,0
GONETS-M 19,2020-068C,2024-01-20T14:23:02.781600,12.42877045,.0014501,82.4964,173.7677,161.6017,198.5590,0,U,46488,999,15010,.34578E-3,.58E-6,0
MEZNSAT,2020-068D,2024-01-20T19:37:41.598912,15.19297178,.0016066,97.7931,341.0150,87.4153,272.8919,0,U,46489,999,18219,.98794E-3,.20891E-3,0
YARILO 1,2020-068E,2024-01-20T19:27:49.466880,15.20756844,.0015574,97.7947,341.6867,87.7570,272.5448,0,U,46490,999,18223,.11804E-2,.2607E-3,0
YARILO 2,2020-068F,2024-01-20T09:51:37.733760,15.20439976,.0016049,97.7945,341.0399,89.9055,270.4018,0,U,46491,999,18215,.96751E-3,.21149E-3,0
LACUNASAT-3,2020-068G,2024-01-20T09:49:10.654176,15.21874129,.0015289,97.7921,341.5505,87.6769,272.6216,0,U,46492,999,18217,.10418E-2,.23756E-3,0
DEKART,2020-068H,2024-01-20T19:40:35.356224,15.11904921,.0017528,97.7977,337.8077,100.9931,259.3272,0,U,46493,999,18195,.59835E-3,.10222E-3,0
NORBI,2020-068J,2024-01-20T19:09:31.101696,15.13268245,.0016985,97.7978,338.2893,100.1473,260.1675,0,U,46494,999,18198,.56103E-3,.995E-4,0
SALSAT,2020-068K,2024-01-20T10:02:01.853664,15.10533015,.0016354,97.7975,336.4648,99.4324,260.8754,0,U,46495,999,18183,.50442E-3,.8278E-4,0
ICEYE-X6,2020-068M,2024-01-20T19:25:17.192928,15.00784759,.0005364,97.8988,334.0396,134.8845,225.2814,0,U,46497,999,18141,.5481E-3,.69E-4,0
LEMUR-2-SLICERS,2020-068Q,2024-01-20T10:28:05.040480,15.29284855,.0010348,97.7767,341.6763,96.9205,263.3212,0,U,46500,999,18219,.15228E-2,.43452E-3,0
LEMUR-2-SUSURRUS,2020-068S,2024-01-20T19:54:30.327552,15.29283153,.0010117,97.7790,342.1293,95.0104,265.2290,0,U,46502,999,18225,.12841E-2,.3659E-3,0
